{
    "links": {
        "self": "http://www.neowsapp.com/rest/v1/neo/3632679?api_key=iIulBulltgU6a56xZRHN4H3l9WmuAYTsLGpBGhQ2"
    },
    "id": "3632679",
    "neo_reference_id": "3632679",
    "name": "(2013 FG)",
    "designation": "2013 FG",
    "nasa_jpl_url": "http://ssd.jpl.nasa.gov/sbdb.cgi?sstr=3632679",
    "absolute_magnitude_h": 25.6,
    "estimated_diameter": {
        "kilometers": {
            "estimated_diameter_min": 0.0201629919,
            "estimated_diameter_max": 0.0450858206
        },
        "meters": {
            "estimated_diameter_min": 20.1629919443,
            "estimated_diameter_max": 45.0858206172
        },
        "miles": {
            "estimated_diameter_min": 0.0125286985,
            "estimated_diameter_max": 0.0280150214
        },
        "feet": {
            "estimated_diameter_min": 66.1515504905,
            "estimated_diameter_max": 147.9193637137
        }
    },
    "is_potentially_hazardous_asteroid": false,
    "close_approach_data": [
        {
            "close_approach_date": "2013-03-24",
            "close_approach_date_full": "2013-Mar-24 07:45",
            "epoch_date_close_approach": 1364111100000,
            "relative_velocity": {
                "kilometers_per_second": "9.2081666008",
                "kilometers_per_hour": "33149.3997628032",
                "miles_per_hour": "20597.7478692818"
            },
            "miss_distance": {
                "astronomical": "0.0097225696",
                "lunar": "3.7820795744",
                "kilometers": "1454475.703086752",
                "miles": "903769.2935590976"
            },
            "orbiting_body": "Earth"
        },
        {
            "close_approach_date": "2013-08-03",
            "close_approach_date_full": "2013-Aug-03 15:51",
            "epoch_date_close_approach": 1375545060000,
            "relative_velocity": {
                "kilometers_per_second": "3.8977583039",
                "kilometers_per_hour": "14031.9298938648",
                "miles_per_hour": "8718.8955498851"
            },
            "miss_distance": {
                "astronomical": "0.4489538944",
                "lunar": "174.6430649216",
                "kilometers": "67162546.330444928",
                "miles": "41732871.1107908864"
            },
            "orbiting_body": "Earth"
        },
        {
            "close_approach_date": "2110-05-03",
            "close_approach_date_full": "2110-May-03 10:44",
            "epoch_date_close_approach": 4428557040000,
            "relative_velocity": {
                "kilometers_per_second": "7.5605443067",
                "kilometers_per_hour": "27217.9595041217",
                "miles_per_hour": "16912.1815596583"
            },
            "miss_distance": {
                "astronomical": "0.1022797",
                "lunar": "39.7868033",
                "kilometers": "15300825.264239",
                "miles": "9507491.9509382"
            },
            "orbiting_body": "Earth"
        }
    ],
    "orbital_data": {
        "orbit_id": "7",
        "orbit_determination_date": "2017-04-06 08:46:23",
        "first_observation_date": "2013-03-17",
        "last_observation_date": "2013-03-23",
        "data_arc_in_days": 6,
        "observations_used": 31,
        "orbit_uncertainty": "7",
        "minimum_orbit_intersection": ".0095094",
        "jupiter_tisserand_invariant": "4.463",
        "epoch_osculation": "2459000.5",
        "eccentricity": ".3944688798708648",
        "semi_major_axis": "1.495842612187458",
        "inclination": "3.024245147438165",
        "ascending_node_longitude": "14.10636383559188",
        "orbital_period": "668.2320139008312",
        "perihelion_distance": ".9057792524947628",
        "perihelion_argument": "216.8098361945312",
        "aphelion_distance": "2.085905971880152",
        "perihelion_time": "2459085.984697073897",
        "mean_anomaly": "313.9463983969346",
        "mean_motion": ".5387350388953763",
        "equinox": "J2000",
        "orbit_class": {
            "orbit_class_type": "APO",
            "orbit_class_description": "Near-Earth asteroid orbits which cross the Earth’s orbit similar to that of 1862 Apollo",
            "orbit_class_range": "a (semi-major axis) > 1.0 AU; q (perihelion) < 1.017 AU"
        }
    },
    "is_sentry_object": false
}